{
  "type": "FeatureCollection",
  "features": [
    {
      "type": "Feature",
      "properties": {
        "norad_id": 29486,
        "name": "GPS BIIRM-2 (PRN 31)",
        "group": "gps-ops",
        "lat": 52.44015760546267,
        "lon": -133.63318355220693,
        "alt_km": 19916.86637125797,
        "timestamp": "2025-12-02T15:49:07.447769+00:00",
        "meta_object_name": "GPS BIIRM-2 (PRN 31)",
        "meta_object_id": "2006-042A",
        "meta_epoch": "2025-12-01T13:45:36.640800",
        "meta_mean_motion": 2.00554492,
        "meta_eccentricity": 0.01073693,
        "meta_inclination": 54.6925,
        "meta_ra_of_asc_node": 159.184,
        "meta_arg_of_pericenter": 51.6942,
        "meta_mean_anomaly": 320.2253,
        "meta_ephemeris_type": 0,
        "meta_classification_type": "U",
        "meta_norad_cat_id": 29486,
        "meta_element_set_no": 999,
        "meta_rev_at_epoch": 14043,
        "meta_bstar": 0,
        "meta_mean_motion_dot": 1.26e-06,
        "meta_mean_motion_ddot": 0,
        "tle_line1": "1 29486U 06042A   25335.57334075  .00000126  00000+0  00000+0 0  9990",
        "tle_line2": "2 29486  54.6925 159.1840 0107369  51.6942 320.2253  2.00554492140433"
      },
      "geometry": {
        "type": "Point",
        "coordinates": [
          -133.63318355220693,
          52.44015760546267
        ]
      }
    },
    {
      "type": "Feature",
      "properties": {
        "norad_id": 29601,
        "name": "GPS BIIRM-3 (PRN 12)",
        "group": "gps-ops",
        "lat": 36.42616578380834,
        "lon": 10.673435285104475,
        "alt_km": 20015.205515474165,
        "timestamp": "2025-12-02T15:49:07.447781+00:00",
        "meta_object_name": "GPS BIIRM-3 (PRN 12)",
        "meta_object_id": "2006-052A",
        "meta_epoch": "2025-12-01T23:28:25.341312",
        "meta_mean_motion": 2.0057269,
        "meta_eccentricity": 0.00874963,
        "meta_inclination": 54.9731,
        "meta_ra_of_asc_node": 221.8254,
        "meta_arg_of_pericenter": 87.3285,
        "meta_mean_anomaly": 273.7543,
        "meta_ephemeris_type": 0,
        "meta_classification_type": "U",
        "meta_norad_cat_id": 29601,
        "meta_element_set_no": 999,
        "meta_rev_at_epoch": 13945,
        "meta_bstar": 0,
        "meta_mean_motion_dot": 5.5e-07,
        "meta_mean_motion_ddot": 0,
        "tle_line1": "1 29601U 06052A   25335.97807108  .00000055  00000+0  00000+0 0  9997",
        "tle_line2": "2 29601  54.9731 221.8254 0087496  87.3285 273.7543  2.00572690139454"
      },
      "geometry": {
        "type": "Point",
        "coordinates": [
          10.673435285104475,
          36.42616578380834
        ]
      }
    },
    {
      "type": "Feature",
      "properties": {
        "norad_id": 32260,
        "name": "GPS BIIRM-4 (PRN 15)",
        "group": "gps-ops",
        "lat": -53.85717542463429,
        "lon": 3.0884774900269534,
        "alt_km": 20619.609517242967,
        "timestamp": "2025-12-02T15:49:07.447793+00:00",
        "meta_object_name": "GPS BIIRM-4 (PRN 15)",
        "meta_object_id": "2007-047A",
        "meta_epoch": "2025-12-02T06:48:08.706240",
        "meta_mean_motion": 2.00564846,
        "meta_eccentricity": 0.01643951,
        "meta_inclination": 53.948,
        "meta_ra_of_asc_node": 88.1904,
        "meta_arg_of_pericenter": 85.1225,
        "meta_mean_anomaly": 276.7305,
        "meta_ephemeris_type": 0,
        "meta_classification_type": "U",
        "meta_norad_cat_id": 32260,
        "meta_element_set_no": 999,
        "meta_rev_at_epoch": 13286,
        "meta_bstar": 0,
        "meta_mean_motion_dot": -1.3e-07,
        "meta_mean_motion_ddot": 0,
        "tle_line1": "1 32260U 07047A   25336.28343410 -.00000013  00000+0  00000+0 0  9998",
        "tle_line2": "2 32260  53.9480  88.1904 0164395  85.1225 276.7305  2.00564846132860"
      },
      "geometry": {
        "type": "Point",
        "coordinates": [
          3.0884774900269534,
          -53.85717542463429
        ]
      }
    },
    {
      "type": "Feature",
      "properties": {
        "norad_id": 32384,
        "name": "GPS BIIRM-5 (PRN 29)",
        "group": "gps-ops",
        "lat": 33.057035424454476,
        "lon": -51.08130863497201,
        "alt_km": 20221.25529343853,
        "timestamp": "2025-12-02T15:49:07.447805+00:00",
        "meta_object_name": "GPS BIIRM-5 (PRN 29)",
        "meta_object_id": "2007-062A",
        "meta_epoch": "2025-11-30T05:30:32.984352",
        "meta_mean_motion": 2.00576538,
        "meta_eccentricity": 0.00321991,
        "meta_inclination": 55.1933,
        "meta_ra_of_asc_node": 282.1479,
        "meta_arg_of_pericenter": 162.9414,
        "meta_mean_anomaly": 284.6025,
        "meta_ephemeris_type": 0,
        "meta_classification_type": "U",
        "meta_norad_cat_id": 32384,
        "meta_element_set_no": 999,
        "meta_rev_at_epoch": 13152,
        "meta_bstar": 0,
        "meta_mean_motion_dot": -4e-07,
        "meta_mean_motion_ddot": 0,
        "tle_line1": "1 32384U 07062A   25334.22954843 -.00000040  00000+0  00000+0 0  9992",
        "tle_line2": "2 32384  55.1933 282.1479 0032199 162.9414 284.6025  2.00576538131527"
      },
      "geometry": {
        "type": "Point",
        "coordinates": [
          -51.08130863497201,
          33.057035424454476
        ]
      }
    },
    {
      "type": "Feature",
      "properties": {
        "norad_id": 32711,
        "name": "GPS BIIRM-6 (PRN 07)",
        "group": "gps-ops",
        "lat": -24.818588285468614,
        "lon": 138.46878034489674,
        "alt_km": 20119.228490249367,
        "timestamp": "2025-12-02T15:49:07.447817+00:00",
        "meta_object_name": "GPS BIIRM-6 (PRN 07)",
        "meta_object_id": "2008-012A",
        "meta_epoch": "2025-12-02T04:53:30.746112",
        "meta_mean_motion": 2.00565009,
        "meta_eccentricity": 0.02020343,
        "meta_inclination": 54.4754,
        "meta_ra_of_asc_node": 157.7935,
        "meta_arg_of_pericenter": 244.8334,
        "meta_mean_anomaly": 113.1019,
        "meta_ephemeris_type": 0,
        "meta_classification_type": "U",
        "meta_norad_cat_id": 32711,
        "meta_element_set_no": 999,
        "meta_rev_at_epoch": 12980,
        "meta_bstar": 0,
        "meta_mean_motion_dot": 1.2e-06,
        "meta_mean_motion_ddot": 0,
        "tle_line1": "1 32711U 08012A   25336.20382808  .00000120  00000+0  00000+0 0  9996",
        "tle_line2": "2 32711  54.4754 157.7935 0202034 244.8334 113.1019  2.00565009129804"
      },
      "geometry": {
        "type": "Point",
        "coordinates": [
          138.46878034489674,
          -24.818588285468614
        ]
      }
    },
    {
      "type": "Feature",
      "properties": {
        "norad_id": 35752,
        "name": "GPS BIIRM-8 (PRN 05)",
        "group": "gps-ops",
        "lat": -11.518691015105224,
        "lon": 27.324746092342618,
        "alt_km": 20197.27786551146,
        "timestamp": "2025-12-02T15:49:07.447828+00:00",
        "meta_object_name": "GPS BIIRM-8 (PRN 05)",
        "meta_object_id": "2009-043A",
        "meta_epoch": "2025-12-01T04:42:32.815296",
        "meta_mean_motion": 2.00566259,
        "meta_eccentricity": 0.00521242,
        "meta_inclination": 56.0822,
        "meta_ra_of_asc_node": 35.2386,
        "meta_arg_of_pericenter": 82.0997,
        "meta_mean_anomaly": 288.3285,
        "meta_ephemeris_type": 0,
        "meta_classification_type": "U",
        "meta_norad_cat_id": 35752,
        "meta_element_set_no": 999,
        "meta_rev_at_epoch": 11939,
        "meta_bstar": 0,
        "meta_mean_motion_dot": -6.6e-07,
        "meta_mean_motion_ddot": 0,
        "tle_line1": "1 35752U 09043A   25335.19621314 -.00000066  00000+0  00000+0 0  9994",
        "tle_line2": "2 35752  56.0822  35.2386 0052124  82.0997 288.3285  2.00566259119397"
      },
      "geometry": {
        "type": "Point",
        "coordinates": [
          27.324746092342618,
          -11.518691015105224
        ]
      }
    },
    {
      "type": "Feature",
      "properties": {
        "norad_id": 36585,
        "name": "GPS BIIF-1  (PRN 25)",
        "group": "gps-ops",
        "lat": 51.18690588834494,
        "lon": -26.74993092328318,
        "alt_km": 19925.08851488164,
        "timestamp": "2025-12-02T15:49:07.447840+00:00",
        "meta_object_name": "GPS BIIF-1  (PRN 25)",
        "meta_object_id": "2010-022A",
        "meta_epoch": "2025-12-02T06:20:52.766304",
        "meta_mean_motion": 2.00552564,
        "meta_eccentricity": 0.0125665,
        "meta_inclination": 54.3023,
        "meta_ra_of_asc_node": 216.4964,
        "meta_arg_of_pericenter": 64.9581,
        "meta_mean_anomaly": 115.6293,
        "meta_ephemeris_type": 0,
        "meta_classification_type": "U",
        "meta_norad_cat_id": 36585,
        "meta_element_set_no": 999,
        "meta_rev_at_epoch": 11364,
        "meta_bstar": 0,
        "meta_mean_motion_dot": 6.7e-07,
        "meta_mean_motion_ddot": 0,
        "tle_line1": "1 36585U 10022A   25336.26449961  .00000067  00000+0  00000+0 0  9993",
        "tle_line2": "2 36585  54.3023 216.4964 0125665  64.9581 115.6293  2.00552564113647"
      },
      "geometry": {
        "type": "Point",
        "coordinates": [
          -26.74993092328318,
          51.18690588834494
        ]
      }
    }
  ]
}